[
    {
        "Altitude(m)": 703452.8701377125,
        "Argument of Periapsis(deg)": 0.0,
        "Eccentricity": 0.0,
        "Inclination(deg)": 45.0,
        "Latitude(deg)": -0.06092518984653462,
        "Longitude(deg)": -39.908756733020425,
        "Mean Anomaly(deg)": -180.0,
        "RAAN(deg)": 240.0,
        "Satellite Name": "Constellation 1 1067",
        "Satellite Number": 1067,
        "Semi-Major Axis(m)": 7083131.272910544,
        "Time(s)": 0
    },
    {
        "Altitude(m)": 703458.5156971214,
        "Argument of Periapsis(deg)": 5.994800624540561e-05,
        "Eccentricity": 0.0,
        "Inclination(deg)": 45.0,
        "Latitude(deg)": -0.10414061302806052,
        "Longitude(deg)": -39.87000796853411,
        "Mean Anomaly(deg)": -179.9392988597501,
        "RAAN(deg)": 239.99994341083442,
        "Satellite Name": "Constellation 1 1067",
        "Satellite Number": 1067,
        "Semi-Major Axis(m)": 7083131.272910544,
        "Time(s)": 1
    },
    {
        "Altitude(m)": 703464.181880566,
        "Argument of Periapsis(deg)": 0.00011989601249081122,
        "Eccentricity": 0.0,
        "Inclination(deg)": 45.0,
        "Latitude(deg)": -0.14735590728181444,
        "Longitude(deg)": -39.83125915573299,
        "Mean Anomaly(deg)": -179.8785977195002,
        "RAAN(deg)": 239.99988682166887,
        "Satellite Name": "Constellation 1 1067",
        "Satellite Number": 1067,
        "Semi-Major Axis(m)": 7083131.272910544,
        "Time(s)": 2
    },
    {
        "Altitude(m)": 703469.8686813822,
        "Argument of Periapsis(deg)": 0.00017984401873621686,
        "Eccentricity": 0.0,
        "Inclination(deg)": 45.0,
        "Latitude(deg)": -0.19057104767239857,
        "Longitude(deg)": -39.792510246320255,
        "Mean Anomaly(deg)": -179.81789657925034,
        "RAAN(deg)": 239.99983023250326,
        "Satellite Name": "Constellation 1 1067",
        "Satellite Number": 1067,
        "Semi-Major Axis(m)": 7083131.272910544,
        "Time(s)": 3
    },
    {
        "Altitude(m)": 703475.5760927965,
        "Argument of Periapsis(deg)": 0.00023979202498162244,
        "Eccentricity": 0.0,
        "Inclination(deg)": 45.0,
        "Latitude(deg)": -0.23378600926442084,
        "Longitude(deg)": -39.753761191998706,
        "Mean Anomaly(deg)": -179.7571954390004,
        "RAAN(deg)": 239.9997736433377,
        "Satellite Name": "Constellation 1 1067",
        "Satellite Number": 1067,
        "Semi-Major Axis(m)": 7083131.272910544,
        "Time(s)": 4
    },
    {
        "Altitude(m)": 703481.304107942,
        "Argument of Periapsis(deg)": 0.00029974003122702807,
        "Eccentricity": 0.0,
        "Inclination(deg)": 45.0,
        "Latitude(deg)": -0.27700076712231514,
        "Longitude(deg)": -39.715011944471534,
        "Mean Anomaly(deg)": -179.69649429875054,
        "RAAN(deg)": 239.99971705417215,
        "Satellite Name": "Constellation 1 1067",
        "Satellite Number": 1067,
        "Semi-Major Axis(m)": 7083131.272910544,
        "Time(s)": 5
    },
    {
        "Altitude(m)": 703487.0527198727,
        "Argument of Periapsis(deg)": 0.00035968803747243373,
        "Eccentricity": 0.0,
        "Inclination(deg)": 45.0,
        "Latitude(deg)": -0.32021529631052104,
        "Longitude(deg)": -39.67626245544132,
        "Mean Anomaly(deg)": -179.63579315850058,
        "RAAN(deg)": 239.9996604650066,
        "Satellite Name": "Constellation 1 1067",
        "Satellite Number": 1067,
        "Semi-Major Axis(m)": 7083131.272910544,
        "Time(s)": 6
    },
    {
        "Altitude(m)": 703492.821921526,
        "Argument of Periapsis(deg)": 0.00041963604371783933,
        "Eccentricity": 0.0,
        "Inclination(deg)": 45.0,
        "Latitude(deg)": -0.36342957189306746,
        "Longitude(deg)": -39.63751284470781,
        "Mean Anomaly(deg)": -179.57509201825076,
        "RAAN(deg)": 239.99960387584105,
        "Satellite Name": "Constellation 1 1067",
        "Satellite Number": 1067,
        "Semi-Major Axis(m)": 7083131.272910544,
        "Time(s)": 7
    },
    {
        "Altitude(m)": 703498.6117057658,
        "Argument of Periapsis(deg)": 0.0004795840499632449,
        "Eccentricity": 0.0,
        "Inclination(deg)": 45.0,
        "Latitude(deg)": -0.40664356893348863,
        "Longitude(deg)": -39.59876272777871,
        "Mean Anomaly(deg)": -179.5143908780008,
        "RAAN(deg)": 239.9995472866754,
        "Satellite Name": "Constellation 1 1067",
        "Satellite Number": 1067,
        "Semi-Major Axis(m)": 7083131.272910544,
        "Time(s)": 8
    },
    {
        "Altitude(m)": 703504.4220653538,
        "Argument of Periapsis(deg)": 0.0005395320562086505,
        "Eccentricity": 0.0,
        "Inclination(deg)": 45.0,
        "Latitude(deg)": -0.44985726249512065,
        "Longitude(deg)": -39.56001222445266,
        "Mean Anomaly(deg)": -179.4536897377509,
        "RAAN(deg)": 239.99949069750986,
        "Satellite Name": "Constellation 1 1067",
        "Satellite Number": 1067,
        "Semi-Major Axis(m)": 7083131.272910544,
        "Time(s)": 9
    },
    {
        "Altitude(m)": 703510.2529929605,
        "Argument of Periapsis(deg)": 0.0005994800624540561,
        "Eccentricity": 0.0,
        "Inclination(deg)": 45.0,
        "Latitude(deg)": -0.49307062764062254,
        "Longitude(deg)": -39.52126128643061,
        "Mean Anomaly(deg)": -179.39298859750104,
        "RAAN(deg)": 239.9994341083443,
        "Satellite Name": "Constellation 1 1067",
        "Satellite Number": 1067,
        "Semi-Major Axis(m)": 7083131.272910544,
        "Time(s)": 10
    },
    {
        "Altitude(m)": 703516.1044811618,
        "Argument of Periapsis(deg)": 0.0006594280686994618,
        "Eccentricity": 0.0,
        "Inclination(deg)": 45.0,
        "Latitude(deg)": -0.5362836394322807,
        "Longitude(deg)": -39.48250986541242,
        "Mean Anomaly(deg)": -179.3322874572511,
        "RAAN(deg)": 239.99937751917875,
        "Satellite Name": "Constellation 1 1067",
        "Satellite Number": 1067,
        "Semi-Major Axis(m)": 7083131.272910544,
        "Time(s)": 11
    },
    {
        "Altitude(m)": 703521.9765224397,
        "Argument of Periapsis(deg)": 0.0007193760749448675,
        "Eccentricity": 0.0,
        "Inclination(deg)": 45.0,
        "Latitude(deg)": -0.5794962729312673,
        "Longitude(deg)": -39.443757913097635,
        "Mean Anomaly(deg)": -179.27158631700127,
        "RAAN(deg)": 239.99932093001314,
        "Satellite Name": "Constellation 1 1067",
        "Satellite Number": 1067,
        "Semi-Major Axis(m)": 7083131.272910544,
        "Time(s)": 12
    },
    {
        "Altitude(m)": 703527.8691091783,
        "Argument of Periapsis(deg)": 0.000779324081190273,
        "Eccentricity": 0.0,
        "Inclination(deg)": 45.0,
        "Latitude(deg)": -0.6227085031982913,
        "Longitude(deg)": -39.40500538118441,
        "Mean Anomaly(deg)": -179.2108851767513,
        "RAAN(deg)": 239.9992643408476,
        "Satellite Name": "Constellation 1 1067",
        "Satellite Number": 1067,
        "Semi-Major Axis(m)": 7083131.272910544,
        "Time(s)": 13
    },
    {
        "Altitude(m)": 703533.7822336804,
        "Argument of Periapsis(deg)": 0.0008392720874356787,
        "Eccentricity": 0.0,
        "Inclination(deg)": 45.0,
        "Latitude(deg)": -0.6659203052929312,
        "Longitude(deg)": -39.36625222137006,
        "Mean Anomaly(deg)": -179.15018403650137,
        "RAAN(deg)": 239.999207751682,
        "Satellite Name": "Constellation 1 1067",
        "Satellite Number": 1067,
        "Semi-Major Axis(m)": 7083131.272910544,
        "Time(s)": 14
    },
    {
        "Altitude(m)": 703539.7158881441,
        "Argument of Periapsis(deg)": 0.0008992200936810842,
        "Eccentricity": 0.0,
        "Inclination(deg)": 45.0,
        "Latitude(deg)": -0.7091316542740491,
        "Longitude(deg)": -39.327498553447626,
        "Mean Anomaly(deg)": -179.08948289625155,
        "RAAN(deg)": 239.99915116251645,
        "Satellite Name": "Constellation 1 1067",
        "Satellite Number": 1067,
        "Semi-Major Axis(m)": 7083131.272910544,
        "Time(s)": 15
    },
    {
        "Altitude(m)": 703545.670064678,
        "Argument of Periapsis(deg)": 0.0009591680999264898,
        "Eccentricity": 0.0,
        "Inclination(deg)": 45.0,
        "Latitude(deg)": -0.7523425251989615,
        "Longitude(deg)": -39.28874399291774,
        "Mean Anomaly(deg)": -179.0287817560016,
        "RAAN(deg)": 239.9990945733509,
        "Satellite Name": "Constellation 1 1067",
        "Satellite Number": 1067,
        "Semi-Major Axis(m)": 7083131.272910544,
        "Time(s)": 16
    },
    {
        "Altitude(m)": 703551.6447552973,
        "Argument of Periapsis(deg)": 0.0010191161061718953,
        "Eccentricity": 0.0,
        "Inclination(deg)": 45.0,
        "Latitude(deg)": -0.7955528931241402,
        "Longitude(deg)": -39.24998865957095,
        "Mean Anomaly(deg)": -178.96808061575172,
        "RAAN(deg)": 239.9990379841853,
        "Satellite Name": "Constellation 1 1067",
        "Satellite Number": 1067,
        "Semi-Major Axis(m)": 7083131.272910544,
        "Time(s)": 17
    },
    {
        "Altitude(m)": 703557.6399519227,
        "Argument of Periapsis(deg)": 0.001079064112417301,
        "Eccentricity": 0.0,
        "Inclination(deg)": 45.0,
        "Latitude(deg)": -0.8387627331048209,
        "Longitude(deg)": -39.21123250509904,
        "Mean Anomaly(deg)": -178.90737947550178,
        "RAAN(deg)": 239.99898139501974,
        "Satellite Name": "Constellation 1 1067",
        "Satellite Number": 1067,
        "Semi-Major Axis(m)": 7083131.272910544,
        "Time(s)": 18
    }
]